STARLINK-36947          
1 68033U 26040U   26185.81212212  .00084837  00000+0  25937-2 0  9990
2 68033  97.2831 134.2741 0002430 104.1919 255.9594 15.33531031 19417
STARLINK-36939          
1 68034U 26040V   26185.80124463  .00062502  00000+0  19178-2 0  9995
2 68034  97.2850 134.2850 0002396  78.7832 281.3681 15.33518746 19419
STARLINK-36943          
1 68035U 26040W   26185.79580725  .00047394  00000+0  14584-2 0  9999
2 68035  97.2830 134.2987 0002179 100.8695 259.2793 15.33503700 20540
STARLINK-36906          
1 68036U 26040X   26185.80396295  .00050266  00000+0  15464-2 0  9999
2 68036  97.2838 134.2791 0001614  98.6971 261.4455 15.33497215 19413
STARLINK-36388          
1 68037U 26040Y   26185.27649183  .00031646  00000+0  97766-3 0  9995
2 68037  97.2852 133.7754 0000720  61.0023 299.1292 15.33471901 19334
STARLINK-36895          
1 68038U 26040Z   26185.61092585  .00044878  00000+0  13825-2 0  9996
2 68038  97.2827 134.0895 0002080  95.6826 264.4654 15.33483034 19384
STARLINK-36373          
1 68039U 26040AA  26185.61363898  .00040754  00000+0  12565-2 0  9994
2 68039  97.2844 134.0780 0001481 124.1391 235.9993 15.33479749 19383
STARLINK-36711          
1 68040U 26041A   26185.82254355  .00063552  00000+0  18733-2 0  9991
2 68040  53.1569 222.8512 0001612  81.8167 278.3018 15.34448271 19369
STARLINK-36825          
1 68041U 26041B   26185.80570663  .00011149  00000+0  34053-3 0  9992
2 68041  53.1564 222.7234 0001338  87.7795 272.3361 15.34406897 19365
STARLINK-36925          
1 68042U 26041C   26185.82311131  .00038389  00000+0  11408-2 0  9991
2 68042  53.1577 224.9837 0000934 113.4814 246.6287 15.34418597 19331
STARLINK-36902          
1 68043U 26041D   26185.80837424  .00044686  00000+0  13248-2 0  9999
2 68043  53.1569 224.8783 0001706  88.5034 271.6164 15.34424584 19331
STARLINK-36966          
1 68044U 26041E   26185.80992045  .00050892  00000+0  15055-2 0  9995
2 68044  53.1564 222.7720 0002121  85.7287 274.3958 15.34433899 19369
STARLINK-36864          
1 68045U 26041F   26185.83095531  .00046167  00000+0  13674-2 0  9998
2 68045  53.1579 222.8988 0001475  83.8728 276.2443 15.34439730 19363
STARLINK-36321          
1 68046U 26041G   26185.53520487  .00075746  00000+0  22272-2 0  9998
2 68046  53.1571 226.0254 0000444  78.9282 281.1771 15.34446052 19299
STARLINK-36181          
1 68047U 26041H   26185.52047632  .00041565  00000+0  12332-2 0  9992
2 68047  53.1585 225.9243 0000862  65.4764 294.6328 15.34432703 19296
STARLINK-36318          
1 68048U 26041J   26185.39815070  .00029638  00000+0  88428-3 0  9994
2 68048  53.1567 225.1695 0000391  92.5817 267.5230 15.34420234 19294
STARLINK-36885          
1 68049U 26041K   26185.81412935  .00041702  00000+0  12375-2 0  9998
2 68049  53.1577 222.8002 0001406  85.9273 274.1890 15.34426027 19362
STARLINK-36945          
1 68050U 26041L   26185.51790357  .00061222  00000+0  18064-2 0  9994
2 68050  53.1571 224.4857 0000625  72.7184 287.3887 15.34434185 19312
STARLINK-35911          
1 68051U 26041M   26185.81468980  .00057742  00000+0  17045-2 0  9992
2 68051  53.1567 224.9153 0001120  66.8037 293.3083 15.34445777 19330
STARLINK-35808          
1 68052U 26041N   26185.52889410  .00067665  00000+0  19935-2 0  9991
2 68052  53.1568 225.9859 0000556  67.8877 292.2184 15.34436482 19299
STARLINK-36919          
1 68053U 26041P   26185.81679080  .00053550  00000+0  15837-2 0  9999
2 68053  53.1570 224.9252 0001760  79.1684 280.9517 15.34419900 19334
STARLINK-36924          
1 68054U 26041Q   26185.84148398  .00027359  00000+0  81715-3 0  9993
2 68054  53.1567 222.9776 0001949  78.9316 281.1905 15.34428371 19367
STARLINK-35998          
1 68055U 26041R   26185.41124755  .00024998  00000+0  74811-3 0  9993
2 68055  53.1566 226.6708 0000754  95.2725 264.8363 15.34417351 19274
STARLINK-36845          
1 68056U 26041S   26185.83937407  .00038172  00000+0  11341-2 0  9993
2 68056  53.1566 222.9387 0002230  85.2431 274.8826 15.34429303 19366
STARLINK-36954          
1 68057U 26041T   26185.82675089  .00044652  00000+0  13241-2 0  9999
2 68057  53.1569 222.8643 0002115  83.2893 276.8350 15.34415675 19367
STARLINK-36899          
1 68058U 26041U   26185.51627290  .00062584  00000+0  18462-2 0  9991
2 68058  53.1583 225.9175 0000751  68.3005 291.8077 15.34431757 19295
STARLINK-36917          
1 68059U 26041V   26184.54507279  .00027450  00000+0  82054-3 0  9990
2 68059  53.1562 229.0883 0001032  87.7228 272.3893 15.34401956 19163
STARLINK-36959          
1 68060U 26041W   26185.81833266  .00055719  00000+0  16458-2 0  9994
2 68060  53.1568 222.8154 0001271  73.3529 286.7613 15.34443289 19369
STARLINK-36915          
1 68061U 26041X   26185.79729332  .00059415  00000+0  17534-2 0  9993
2 68061  53.1568 222.6780 0001152  88.9627 271.1508 15.34441915 19367
STARLINK-36952          
1 68062U 26041Y   26185.83517217  .00022781  00000+0  68276-3 0  9992
2 68062  53.1571 222.9249 0002484  84.4421 275.6865 15.34424800 19366
