OBJECT_NAME,OBJECT_ID,EPOCH,MEAN_MOTION,ECCENTRICITY,INCLINATION,RA_OF_ASC_NODE,ARG_OF_PERICENTER,MEAN_ANOMALY,EPHEMERIS_TYPE,CLASSIFICATION_TYPE,NORAD_CAT_ID,ELEMENT_SET_NO,REV_AT_EPOCH,BSTAR,MEAN_MOTION_DOT,MEAN_MOTION_DDOT
STARLINK-36947,2026-040U,2026-07-04T19:29:27.351168,15.33531031,.00024301,97.2831,134.2741,104.1919,255.9594,0,U,68033,999,1941,.25936826E-2,.84837E-3,0
STARLINK-36939,2026-040V,2026-07-04T19:13:47.536032,15.33518746,.00023967,97.2850,134.2850,78.7832,281.3681,0,U,68034,999,1941,.19178421E-2,.62502E-3,0
STARLINK-36943,2026-040W,2026-07-04T19:05:57.746400,15.33503700,.00021791,97.2830,134.2987,100.8695,259.2793,0,U,68035,999,2054,.14584416E-2,.47394E-3,0
STARLINK-36906,2026-040X,2026-07-04T19:17:42.398880,15.33497215,.00016146,97.2838,134.2791,98.6971,261.4455,0,U,68036,999,1941,.1546425E-2,.50266E-3,0
STARLINK-36388,2026-040Y,2026-07-04T06:38:08.894112,15.33471901,.00007202,97.2852,133.7754,61.0023,299.1292,0,U,68037,999,1933,.97765516E-3,.31646E-3,0
STARLINK-36895,2026-040Z,2026-07-04T14:39:43.993440,15.33483034,.00020802,97.2827,134.0895,95.6826,264.4654,0,U,68038,999,1938,.13824794E-2,.44878E-3,0
STARLINK-36373,2026-040AA,2026-07-04T14:43:38.407872,15.33479749,.00014819,97.2844,134.0780,124.1391,235.9993,0,U,68039,999,1938,.12565246E-2,.40754E-3,0
STARLINK-36711,2026-041A,2026-07-04T19:44:27.762720,15.34448271,.00016123,53.1569,222.8512,81.8167,278.3018,0,U,68040,999,1936,.18732911E-2,.63552E-3,0
STARLINK-36825,2026-041B,2026-07-04T19:20:13.052832,15.34406897,.00013388,53.1564,222.7234,87.7795,272.3361,0,U,68041,999,1936,.34052983E-3,.11149E-3,0
STARLINK-36925,2026-041C,2026-07-04T19:45:16.817184,15.34418597,.00009342,53.1577,224.9837,113.4814,246.6287,0,U,68042,999,1933,.11408283E-2,.38389E-3,0
STARLINK-36902,2026-041D,2026-07-04T19:24:03.534336,15.34424584,.00017062,53.1569,224.8783,88.5034,271.6164,0,U,68043,999,1933,.13247889E-2,.44686E-3,0
STARLINK-36966,2026-041E,2026-07-04T19:26:17.126880,15.34433899,.00021215,53.1564,222.7720,85.7287,274.3958,0,U,68044,999,1936,.15055213E-2,.50892E-3,0
STARLINK-36864,2026-041F,2026-07-04T19:56:34.538784,15.34439730,.00014759,53.1579,222.8988,83.8728,276.2443,0,U,68045,999,1936,.1367393E-2,.46167E-3,0
STARLINK-36321,2026-041G,2026-07-04T12:50:41.700768,15.34446052,.00004443,53.1571,226.0254,78.9282,281.1771,0,U,68046,999,1929,.22271831E-2,.75746E-3,0
STARLINK-36181,2026-041H,2026-07-04T12:29:29.154048,15.34432703,.00008621,53.1585,225.9243,65.4764,294.6328,0,U,68047,999,1929,.12332479E-2,.41565E-3,0
STARLINK-36318,2026-041J,2026-07-04T09:33:20.220480,15.34420234,.00003917,53.1567,225.1695,92.5817,267.5230,0,U,68048,999,1929,.88428341E-3,.29638E-3,0
STARLINK-36885,2026-041K,2026-07-04T19:32:20.775840,15.34426027,.00014068,53.1577,222.8002,85.9273,274.1890,0,U,68049,999,1936,.12374982E-2,.41702E-3,0
STARLINK-36945,2026-041L,2026-07-04T12:25:46.868448,15.34434185,.00006258,53.1571,224.4857,72.7184,287.3887,0,U,68050,999,1931,.18064094E-2,.61222E-3,0
STARLINK-35911,2026-041M,2026-07-04T19:33:09.198720,15.34445777,.00011206,53.1567,224.9153,66.8037,293.3083,0,U,68051,999,1933,.1704517E-2,.57742E-3,0
STARLINK-35808,2026-041N,2026-07-04T12:41:36.450240,15.34436482,.00005566,53.1568,225.9859,67.8877,292.2184,0,U,68052,999,1929,.19934797E-2,.67665E-3,0
STARLINK-36919,2026-041P,2026-07-04T19:36:10.725120,15.34419900,.00017608,53.1570,224.9252,79.1684,280.9517,0,U,68053,999,1933,.158374E-2,.5355E-3,0
STARLINK-36924,2026-041Q,2026-07-04T20:11:44.215872,15.34428371,.00019494,53.1567,222.9776,78.9316,281.1905,0,U,68054,999,1936,.81715402E-3,.27359E-3,0
STARLINK-35998,2026-041R,2026-07-04T09:52:11.788320,15.34417351,.00007546,53.1566,226.6708,95.2725,264.8363,0,U,68055,999,1927,.74810813E-3,.24998E-3,0
STARLINK-36845,2026-041S,2026-07-04T20:08:41.919648,15.34429303,.000223,53.1566,222.9387,85.2431,274.8826,0,U,68056,999,1936,.11340673E-2,.38172E-3,0
STARLINK-36954,2026-041T,2026-07-04T19:50:31.276896,15.34415675,.00021158,53.1569,222.8643,83.2893,276.8350,0,U,68057,999,1936,.1324137E-2,.44652E-3,0
STARLINK-36899,2026-041U,2026-07-04T12:23:25.978560,15.34431757,.00007516,53.1583,225.9175,68.3005,291.8077,0,U,68058,999,1929,.18461559E-2,.62584E-3,0
STARLINK-36917,2026-041V,2026-07-03T13:04:54.289056,15.34401956,.0001032,53.1562,229.0883,87.7228,272.3893,0,U,68059,999,1916,.82054E-3,.2745E-3,0
STARLINK-36959,2026-041W,2026-07-04T19:38:23.941824,15.34443289,.00012717,53.1568,222.8154,73.3529,286.7613,0,U,68060,999,1936,.16457548E-2,.55719E-3,0
STARLINK-36915,2026-041X,2026-07-04T19:08:06.142848,15.34441915,.00011527,53.1568,222.6780,88.9627,271.1508,0,U,68061,999,1936,.17534019E-2,.59415E-3,0
STARLINK-36952,2026-041Y,2026-07-04T20:02:38.875488,15.34424800,.00024844,53.1571,222.9249,84.4421,275.6865,0,U,68062,999,1936,.6827638E-3,.22781E-3,0
